STARLINK-36348          
1 67851U 26034B   26056.98374322 -.00417339  66703-4 -11933-2 0  9993
2 67851  53.1524 270.1542 0001966  22.7292 337.3822 15.92382390  2086
STARLINK-36276          
1 67852U 26034C   26056.66668981 -.01693531  80859-3 -47178-2 0  9994
2 67852  53.1524 271.7667 0000529  98.5524 244.5044 15.93152017  1935
STARLINK-36785          
1 67853U 26034D   26056.98312562 -.00402634  63137-4 -11313-2 0  9995
2 67853  53.1524 270.1500 0001937  22.7146 337.3967 15.92709345  2081
STARLINK-36608          
1 67854U 26034E   26056.98280076  .00086809  14023-4  25127-3 0  9999
2 67854  53.1521 270.1477 0002769   1.5337 358.5698 15.93049801  2084
STARLINK-36838          
1 67855U 26034F   26056.98248495 -.00388860  59899-4 -10736-2 0  9992
2 67855  53.1523 270.1456 0001912  12.9466 347.1610 15.93037473  2082
STARLINK-36843          
1 67856U 26034G   26056.98182687 -.00380533  58047-4 -10330-2 0  9996
2 67856  53.1523 270.1409 0001827  18.0552 342.0541 15.93353134  2081
STARLINK-36828          
1 67857U 26034H   26056.98214830 -.00387141  59570-4 -10595-2 0  9990
2 67857  53.1523 270.1434 0001180 356.7873   3.3147 15.93204444  2088
STARLINK-36837          
1 67858U 26034J   26056.85606880 -.00453246  77496-4 -11985-2 0  9998
2 67858  53.1524 270.7796 0000734 309.9040  50.1923 15.93884273  2061
STARLINK-36393          
1 67859U 26034K   26056.98119856 -.00383264  58879-4 -10234-2 0  9997
2 67859  53.1521 270.1366 0001425 350.5066   9.5935 15.93666960  2088
STARLINK-35873          
1 67860U 26034L   26056.98092269 -.00375237  57015-4 -99464-3 0  9992
2 67860  53.1524 270.1350 0001867  26.3791 333.7331 15.93800518  2114
STARLINK-36325          
1 67861U 26034M   26056.98060565 -.00370145  55888-4 -97263-3 0  9991
2 67861  53.1520 270.1328 0001091 356.7714   3.3307 15.93963755  2082
STARLINK-36332          
1 67862U 26034N   26056.85489715 -.00349347  51359-4 -88990-3 0  9996
2 67862  53.1528 270.7703 0002631 328.8872  31.2000 15.94528469  2068
