CCSDS_OMM_VERS = 2.0
CREATION_DATE  = 
ORIGINATOR     = 

OBJECT_NAME    = STARLINK-36348
OBJECT_ID      = 2026-034B
CENTER_NAME    = EARTH
REF_FRAME      = TEME
TIME_SYSTEM    = UTC
MEAN_ELEMENT_THEORY = SGP/SGP4

EPOCH          = 2026-02-25T23:36:35.414208
MEAN_MOTION    = 15.92382390
ECCENTRICITY   = .0001967
INCLINATION    = 53.1524
RA_OF_ASC_NODE = 270.1542
ARG_OF_PERICENTER = 22.7292
MEAN_ANOMALY   = 337.3822

EPHEMERIS_TYPE = 0
CLASSIFICATION_TYPE = U
NORAD_CAT_ID   = 67851
ELEMENT_SET_NO = 999
REV_AT_EPOCH   = 208
BSTAR          = -.11933E-2
MEAN_MOTION_DOT = -.417339E-2
MEAN_MOTION_DDOT = .66703E-4

CCSDS_OMM_VERS = 2.0
CREATION_DATE  = 
ORIGINATOR     = 

OBJECT_NAME    = STARLINK-36276
OBJECT_ID      = 2026-034C
CENTER_NAME    = EARTH
REF_FRAME      = TEME
TIME_SYSTEM    = UTC
MEAN_ELEMENT_THEORY = SGP/SGP4

EPOCH          = 2026-02-25T16:00:01.999584
MEAN_MOTION    = 15.93152017
ECCENTRICITY   = .0000529
INCLINATION    = 53.1524
RA_OF_ASC_NODE = 271.7667
ARG_OF_PERICENTER = 98.5524
MEAN_ANOMALY   = 244.5044

EPHEMERIS_TYPE = 0
CLASSIFICATION_TYPE = U
NORAD_CAT_ID   = 67852
ELEMENT_SET_NO = 999
REV_AT_EPOCH   = 193
BSTAR          = -.47178E-2
MEAN_MOTION_DOT = -.1693531E-1
MEAN_MOTION_DDOT = .80859E-3

CCSDS_OMM_VERS = 2.0
CREATION_DATE  = 
ORIGINATOR     = 

OBJECT_NAME    = STARLINK-36785
OBJECT_ID      = 2026-034D
CENTER_NAME    = EARTH
REF_FRAME      = TEME
TIME_SYSTEM    = UTC
MEAN_ELEMENT_THEORY = SGP/SGP4

EPOCH          = 2026-02-25T23:35:42.052704
MEAN_MOTION    = 15.92709345
ECCENTRICITY   = .0001937
INCLINATION    = 53.1524
RA_OF_ASC_NODE = 270.1500
ARG_OF_PERICENTER = 22.7146
MEAN_ANOMALY   = 337.3967

EPHEMERIS_TYPE = 0
CLASSIFICATION_TYPE = U
NORAD_CAT_ID   = 67853
ELEMENT_SET_NO = 999
REV_AT_EPOCH   = 208
BSTAR          = -.11313E-2
MEAN_MOTION_DOT = -.402634E-2
MEAN_MOTION_DDOT = .63137E-4

CCSDS_OMM_VERS = 2.0
CREATION_DATE  = 
ORIGINATOR     = 

OBJECT_NAME    = STARLINK-36608
OBJECT_ID      = 2026-034E
CENTER_NAME    = EARTH
REF_FRAME      = TEME
TIME_SYSTEM    = UTC
MEAN_ELEMENT_THEORY = SGP/SGP4

EPOCH          = 2026-02-25T23:35:13.984800
MEAN_MOTION    = 15.93049801
ECCENTRICITY   = .000277
INCLINATION    = 53.1521
RA_OF_ASC_NODE = 270.1477
ARG_OF_PERICENTER = 1.5337
MEAN_ANOMALY   = 358.5698

EPHEMERIS_TYPE = 0
CLASSIFICATION_TYPE = U
NORAD_CAT_ID   = 67854
ELEMENT_SET_NO = 999
REV_AT_EPOCH   = 208
BSTAR          = .25127E-3
MEAN_MOTION_DOT = .86809E-3
MEAN_MOTION_DDOT = .14023E-4

CCSDS_OMM_VERS = 2.0
CREATION_DATE  = 
ORIGINATOR     = 

OBJECT_NAME    = STARLINK-36838
OBJECT_ID      = 2026-034F
CENTER_NAME    = EARTH
REF_FRAME      = TEME
TIME_SYSTEM    = UTC
MEAN_ELEMENT_THEORY = SGP/SGP4

EPOCH          = 2026-02-25T23:34:46.698816
MEAN_MOTION    = 15.93037473
ECCENTRICITY   = .0001912
INCLINATION    = 53.1523
RA_OF_ASC_NODE = 270.1456
ARG_OF_PERICENTER = 12.9466
MEAN_ANOMALY   = 347.1610

EPHEMERIS_TYPE = 0
CLASSIFICATION_TYPE = U
NORAD_CAT_ID   = 67855
ELEMENT_SET_NO = 999
REV_AT_EPOCH   = 208
BSTAR          = -.10736E-2
MEAN_MOTION_DOT = -.38886E-2
MEAN_MOTION_DDOT = .59899E-4

CCSDS_OMM_VERS = 2.0
CREATION_DATE  = 
ORIGINATOR     = 

OBJECT_NAME    = STARLINK-36843
OBJECT_ID      = 2026-034G
CENTER_NAME    = EARTH
REF_FRAME      = TEME
TIME_SYSTEM    = UTC
MEAN_ELEMENT_THEORY = SGP/SGP4

EPOCH          = 2026-02-25T23:33:49.840704
MEAN_MOTION    = 15.93353134
ECCENTRICITY   = .0001827
INCLINATION    = 53.1523
RA_OF_ASC_NODE = 270.1409
ARG_OF_PERICENTER = 18.0552
MEAN_ANOMALY   = 342.0541

EPHEMERIS_TYPE = 0
CLASSIFICATION_TYPE = U
NORAD_CAT_ID   = 67856
ELEMENT_SET_NO = 999
REV_AT_EPOCH   = 208
BSTAR          = -.1033E-2
MEAN_MOTION_DOT = -.380533E-2
MEAN_MOTION_DDOT = .58047E-4

CCSDS_OMM_VERS = 2.0
CREATION_DATE  = 
ORIGINATOR     = 

OBJECT_NAME    = STARLINK-36828
OBJECT_ID      = 2026-034H
CENTER_NAME    = EARTH
REF_FRAME      = TEME
TIME_SYSTEM    = UTC
MEAN_ELEMENT_THEORY = SGP/SGP4

EPOCH          = 2026-02-25T23:34:17.612256
MEAN_MOTION    = 15.93204444
ECCENTRICITY   = .0001181
INCLINATION    = 53.1523
RA_OF_ASC_NODE = 270.1434
ARG_OF_PERICENTER = 356.7873
MEAN_ANOMALY   = 3.3147

EPHEMERIS_TYPE = 0
CLASSIFICATION_TYPE = U
NORAD_CAT_ID   = 67857
ELEMENT_SET_NO = 999
REV_AT_EPOCH   = 208
BSTAR          = -.10595E-2
MEAN_MOTION_DOT = -.387141E-2
MEAN_MOTION_DDOT = .5957E-4

CCSDS_OMM_VERS = 2.0
CREATION_DATE  = 
ORIGINATOR     = 

OBJECT_NAME    = STARLINK-36837
OBJECT_ID      = 2026-034J
CENTER_NAME    = EARTH
REF_FRAME      = TEME
TIME_SYSTEM    = UTC
MEAN_ELEMENT_THEORY = SGP/SGP4

EPOCH          = 2026-02-25T20:32:44.344320
MEAN_MOTION    = 15.93884273
ECCENTRICITY   = .0000735
INCLINATION    = 53.1524
RA_OF_ASC_NODE = 270.7796
ARG_OF_PERICENTER = 309.9040
MEAN_ANOMALY   = 50.1923

EPHEMERIS_TYPE = 0
CLASSIFICATION_TYPE = U
NORAD_CAT_ID   = 67858
ELEMENT_SET_NO = 999
REV_AT_EPOCH   = 206
BSTAR          = -.11985E-2
MEAN_MOTION_DOT = -.453246E-2
MEAN_MOTION_DDOT = .77496E-4

CCSDS_OMM_VERS = 2.0
CREATION_DATE  = 
ORIGINATOR     = 

OBJECT_NAME    = STARLINK-36393
OBJECT_ID      = 2026-034K
CENTER_NAME    = EARTH
REF_FRAME      = TEME
TIME_SYSTEM    = UTC
MEAN_ELEMENT_THEORY = SGP/SGP4

EPOCH          = 2026-02-25T23:32:55.554720
MEAN_MOTION    = 15.93666960
ECCENTRICITY   = .0001426
INCLINATION    = 53.1521
RA_OF_ASC_NODE = 270.1366
ARG_OF_PERICENTER = 350.5066
MEAN_ANOMALY   = 9.5935

EPHEMERIS_TYPE = 0
CLASSIFICATION_TYPE = U
NORAD_CAT_ID   = 67859
ELEMENT_SET_NO = 999
REV_AT_EPOCH   = 208
BSTAR          = -.10234E-2
MEAN_MOTION_DOT = -.383264E-2
MEAN_MOTION_DDOT = .58879E-4

CCSDS_OMM_VERS = 2.0
CREATION_DATE  = 
ORIGINATOR     = 

OBJECT_NAME    = STARLINK-35873
OBJECT_ID      = 2026-034L
CENTER_NAME    = EARTH
REF_FRAME      = TEME
TIME_SYSTEM    = UTC
MEAN_ELEMENT_THEORY = SGP/SGP4

EPOCH          = 2026-02-25T23:32:31.720416
MEAN_MOTION    = 15.93800518
ECCENTRICITY   = .0001868
INCLINATION    = 53.1524
RA_OF_ASC_NODE = 270.1350
ARG_OF_PERICENTER = 26.3791
MEAN_ANOMALY   = 333.7331

EPHEMERIS_TYPE = 0
CLASSIFICATION_TYPE = U
NORAD_CAT_ID   = 67860
ELEMENT_SET_NO = 999
REV_AT_EPOCH   = 211
BSTAR          = -.99464E-3
MEAN_MOTION_DOT = -.375237E-2
MEAN_MOTION_DDOT = .57015E-4

CCSDS_OMM_VERS = 2.0
CREATION_DATE  = 
ORIGINATOR     = 

OBJECT_NAME    = STARLINK-36325
OBJECT_ID      = 2026-034M
CENTER_NAME    = EARTH
REF_FRAME      = TEME
TIME_SYSTEM    = UTC
MEAN_ELEMENT_THEORY = SGP/SGP4

EPOCH          = 2026-02-25T23:32:04.328160
MEAN_MOTION    = 15.93963755
ECCENTRICITY   = .0001091
INCLINATION    = 53.1520
RA_OF_ASC_NODE = 270.1328
ARG_OF_PERICENTER = 356.7714
MEAN_ANOMALY   = 3.3307

EPHEMERIS_TYPE = 0
CLASSIFICATION_TYPE = U
NORAD_CAT_ID   = 67861
ELEMENT_SET_NO = 999
REV_AT_EPOCH   = 208
BSTAR          = -.97263E-3
MEAN_MOTION_DOT = -.370145E-2
MEAN_MOTION_DDOT = .55888E-4

CCSDS_OMM_VERS = 2.0
CREATION_DATE  = 
ORIGINATOR     = 

OBJECT_NAME    = STARLINK-36332
OBJECT_ID      = 2026-034N
CENTER_NAME    = EARTH
REF_FRAME      = TEME
TIME_SYSTEM    = UTC
MEAN_ELEMENT_THEORY = SGP/SGP4

EPOCH          = 2026-02-25T20:31:03.112896
MEAN_MOTION    = 15.94528469
ECCENTRICITY   = .0002632
INCLINATION    = 53.1528
RA_OF_ASC_NODE = 270.7703
ARG_OF_PERICENTER = 328.8872
MEAN_ANOMALY   = 31.2000

EPHEMERIS_TYPE = 0
CLASSIFICATION_TYPE = U
NORAD_CAT_ID   = 67862
ELEMENT_SET_NO = 999
REV_AT_EPOCH   = 206
BSTAR          = -.8899E-3
MEAN_MOTION_DOT = -.349347E-2
MEAN_MOTION_DDOT = .51359E-4

